CCSDS_OMM_VERS = 2.0
CREATION_DATE  = 
ORIGINATOR     = 

OBJECT_NAME    = SL-16 R/B
OBJECT_ID      = 1998-043G
CENTER_NAME    = EARTH
REF_FRAME      = TEME
TIME_SYSTEM    = UTC
MEAN_ELEMENT_THEORY = SGP/SGP4

EPOCH          = 2026-01-14T20:18:00.080928
MEAN_MOTION    = 14.26034474
ECCENTRICITY   = .0010022
INCLINATION    = 98.8168
RA_OF_ASC_NODE = 327.8570
ARG_OF_PERICENTER = 164.6631
MEAN_ANOMALY   = 195.4853

EPHEMERIS_TYPE = 0
CLASSIFICATION_TYPE = U
NORAD_CAT_ID   = 25400
ELEMENT_SET_NO = 999
REV_AT_EPOCH   = 43131
BSTAR          = .28631E-4
MEAN_MOTION_DOT = .23E-6
MEAN_MOTION_DDOT = 0

CCSDS_OMM_VERS = 2.0
CREATION_DATE  = 
ORIGINATOR     = 

OBJECT_NAME    = SL-16 R/B
OBJECT_ID      = 1998-045B
CENTER_NAME    = EARTH
REF_FRAME      = TEME
TIME_SYSTEM    = UTC
MEAN_ELEMENT_THEORY = SGP/SGP4

EPOCH          = 2026-01-15T04:11:12.708960
MEAN_MOTION    = 14.16180312
ECCENTRICITY   = .0005322
INCLINATION    = 71.0119
RA_OF_ASC_NODE = 294.1151
ARG_OF_PERICENTER = 115.2414
MEAN_ANOMALY   = 244.9262

EPHEMERIS_TYPE = 0
CLASSIFICATION_TYPE = U
NORAD_CAT_ID   = 25407
ELEMENT_SET_NO = 999
REV_AT_EPOCH   = 41952
BSTAR          = .739E-4
MEAN_MOTION_DOT = .99E-6
MEAN_MOTION_DDOT = 0

CCSDS_OMM_VERS = 2.0
CREATION_DATE  = 
ORIGINATOR     = 

OBJECT_NAME    = ISS (ZARYA)
OBJECT_ID      = 1998-067A
CENTER_NAME    = EARTH
REF_FRAME      = TEME
TIME_SYSTEM    = UTC
MEAN_ELEMENT_THEORY = SGP/SGP4

EPOCH          = 2026-01-14T21:15:56.381472
MEAN_MOTION    = 15.49293899
ECCENTRICITY   = .0007761
INCLINATION    = 51.6333
RA_OF_ASC_NODE = 338.3791
ARG_OF_PERICENTER = 18.9639
MEAN_ANOMALY   = 341.1637

EPHEMERIS_TYPE = 0
CLASSIFICATION_TYPE = U
NORAD_CAT_ID   = 25544
ELEMENT_SET_NO = 999
REV_AT_EPOCH   = 54799
BSTAR          = .12902E-3
MEAN_MOTION_DOT = .674E-4
MEAN_MOTION_DDOT = 0

CCSDS_OMM_VERS = 2.0
CREATION_DATE  = 
ORIGINATOR     = 

OBJECT_NAME    = CZ-4B R/B
OBJECT_ID      = 1999-025C
CENTER_NAME    = EARTH
REF_FRAME      = TEME
TIME_SYSTEM    = UTC
MEAN_ELEMENT_THEORY = SGP/SGP4

EPOCH          = 2026-01-15T02:50:51.616608
MEAN_MOTION    = 14.18252278
ECCENTRICITY   = .0037866
INCLINATION    = 98.6725
RA_OF_ASC_NODE = 60.6446
ARG_OF_PERICENTER = 137.9188
MEAN_ANOMALY   = 281.5184

EPHEMERIS_TYPE = 0
CLASSIFICATION_TYPE = U
NORAD_CAT_ID   = 25732
ELEMENT_SET_NO = 999
REV_AT_EPOCH   = 38057
BSTAR          = .32883E-4
MEAN_MOTION_DOT = .25E-6
MEAN_MOTION_DDOT = 0

CCSDS_OMM_VERS = 2.0
CREATION_DATE  = 
ORIGINATOR     = 

OBJECT_NAME    = OKEAN-O
OBJECT_ID      = 1999-039A
CENTER_NAME    = EARTH
REF_FRAME      = TEME
TIME_SYSTEM    = UTC
MEAN_ELEMENT_THEORY = SGP/SGP4

EPOCH          = 2026-01-15T02:47:26.324160
MEAN_MOTION    = 14.80227057
ECCENTRICITY   = .0001693
INCLINATION    = 97.9553
RA_OF_ASC_NODE = 75.5220
ARG_OF_PERICENTER = 107.6818
MEAN_ANOMALY   = 252.4578

EPHEMERIS_TYPE = 0
CLASSIFICATION_TYPE = U
NORAD_CAT_ID   = 25860
ELEMENT_SET_NO = 999
REV_AT_EPOCH   = 42646
BSTAR          = .67813E-4
MEAN_MOTION_DOT = .463E-5
MEAN_MOTION_DDOT = 0

CCSDS_OMM_VERS = 2.0
CREATION_DATE  = 
ORIGINATOR     = 

OBJECT_NAME    = SL-16 R/B
OBJECT_ID      = 1999-039B
CENTER_NAME    = EARTH
REF_FRAME      = TEME
TIME_SYSTEM    = UTC
MEAN_ELEMENT_THEORY = SGP/SGP4

EPOCH          = 2026-01-15T03:31:35.155488
MEAN_MOTION    = 14.81641121
ECCENTRICITY   = .0016092
INCLINATION    = 98.0076
RA_OF_ASC_NODE = 74.2927
ARG_OF_PERICENTER = 72.9895
MEAN_ANOMALY   = 287.3079

EPHEMERIS_TYPE = 0
CLASSIFICATION_TYPE = U
NORAD_CAT_ID   = 25861
ELEMENT_SET_NO = 999
REV_AT_EPOCH   = 42893
BSTAR          = .52128E-4
MEAN_MOTION_DOT = .357E-5
MEAN_MOTION_DDOT = 0

CCSDS_OMM_VERS = 2.0
CREATION_DATE  = 
ORIGINATOR     = 

OBJECT_NAME    = DELTA 2 R/B
OBJECT_ID      = 1999-041E
CENTER_NAME    = EARTH
REF_FRAME      = TEME
TIME_SYSTEM    = UTC
MEAN_ELEMENT_THEORY = SGP/SGP4

EPOCH          = 2026-01-14T18:42:19.747872
MEAN_MOTION    = 14.11549951
ECCENTRICITY   = .050362
INCLINATION    = 51.7610
RA_OF_ASC_NODE = 156.5441
ARG_OF_PERICENTER = 189.1667
MEAN_ANOMALY   = 169.9797

EPHEMERIS_TYPE = 0
CLASSIFICATION_TYPE = U
NORAD_CAT_ID   = 25876
ELEMENT_SET_NO = 999
REV_AT_EPOCH   = 35541
BSTAR          = .36509E-3
MEAN_MOTION_DOT = .2034E-4
MEAN_MOTION_DDOT = 0

CCSDS_OMM_VERS = 2.0
CREATION_DATE  = 
ORIGINATOR     = 

OBJECT_NAME    = HELIOS 1B
OBJECT_ID      = 1999-064A
CENTER_NAME    = EARTH
REF_FRAME      = TEME
TIME_SYSTEM    = UTC
MEAN_ELEMENT_THEORY = SGP/SGP4

EPOCH          = 2026-01-15T04:06:53.121888
MEAN_MOTION    = 14.87438243
ECCENTRICITY   = .0000614
INCLINATION    = 98.1747
RA_OF_ASC_NODE = 275.8304
ARG_OF_PERICENTER = 133.8853
MEAN_ANOMALY   = 226.2413

EPHEMERIS_TYPE = 0
CLASSIFICATION_TYPE = U
NORAD_CAT_ID   = 25977
ELEMENT_SET_NO = 999
REV_AT_EPOCH   = 67730
BSTAR          = .13217E-3
MEAN_MOTION_DOT = .1138E-4
MEAN_MOTION_DDOT = 0

CCSDS_OMM_VERS = 2.0
CREATION_DATE  = 
ORIGINATOR     = 

OBJECT_NAME    = TERRA
OBJECT_ID      = 1999-068A
CENTER_NAME    = EARTH
REF_FRAME      = TEME
TIME_SYSTEM    = UTC
MEAN_ELEMENT_THEORY = SGP/SGP4

EPOCH          = 2026-01-15T03:50:49.155360
MEAN_MOTION    = 14.60944265
ECCENTRICITY   = .0002353
INCLINATION    = 97.9700
RA_OF_ASC_NODE = 70.6104
ARG_OF_PERICENTER = 23.6847
MEAN_ANOMALY   = 51.4374

EPHEMERIS_TYPE = 0
CLASSIFICATION_TYPE = U
NORAD_CAT_ID   = 25994
ELEMENT_SET_NO = 999
REV_AT_EPOCH   = 38726
BSTAR          = .67244E-4
MEAN_MOTION_DOT = .285E-5
MEAN_MOTION_DDOT = 0

CCSDS_OMM_VERS = 2.0
CREATION_DATE  = 
ORIGINATOR     = 

OBJECT_NAME    = SL-16 R/B
OBJECT_ID      = 2000-006B
CENTER_NAME    = EARTH
REF_FRAME      = TEME
TIME_SYSTEM    = UTC
MEAN_ELEMENT_THEORY = SGP/SGP4

EPOCH          = 2026-01-14T23:08:06.291744
MEAN_MOTION    = 14.15813707
ECCENTRICITY   = .0018959
INCLINATION    = 71.0003
RA_OF_ASC_NODE = 210.8007
ARG_OF_PERICENTER = 264.1320
MEAN_ANOMALY   = 95.7641

EPHEMERIS_TYPE = 0
CLASSIFICATION_TYPE = U
NORAD_CAT_ID   = 26070
ELEMENT_SET_NO = 999
REV_AT_EPOCH   = 34095
BSTAR          = -.11136E-3
MEAN_MOTION_DOT = -.267E-5
MEAN_MOTION_DDOT = 0

CCSDS_OMM_VERS = 2.0
CREATION_DATE  = 
ORIGINATOR     = 

OBJECT_NAME    = TITAN 4B R/B
OBJECT_ID      = 2000-047B
CENTER_NAME    = EARTH
REF_FRAME      = TEME
TIME_SYSTEM    = UTC
MEAN_ELEMENT_THEORY = SGP/SGP4

EPOCH          = 2026-01-15T02:02:35.428128
MEAN_MOTION    = 15.09049816
ECCENTRICITY   = .0036996
INCLINATION    = 67.9873
RA_OF_ASC_NODE = 191.1853
ARG_OF_PERICENTER = 103.1782
MEAN_ANOMALY   = 257.3499

EPHEMERIS_TYPE = 0
CLASSIFICATION_TYPE = U
NORAD_CAT_ID   = 26474
ELEMENT_SET_NO = 999
REV_AT_EPOCH   = 38482
BSTAR          = .13371E-3
MEAN_MOTION_DOT = .2017E-4
MEAN_MOTION_DDOT = 0

CCSDS_OMM_VERS = 2.0
CREATION_DATE  = 
ORIGINATOR     = 

OBJECT_NAME    = ENVISAT
OBJECT_ID      = 2002-009A
CENTER_NAME    = EARTH
REF_FRAME      = TEME
TIME_SYSTEM    = UTC
MEAN_ELEMENT_THEORY = SGP/SGP4

EPOCH          = 2026-01-14T20:31:33.408192
MEAN_MOTION    = 14.39013185
ECCENTRICITY   = .0001162
INCLINATION    = 98.3643
RA_OF_ASC_NODE = 329.7644
ARG_OF_PERICENTER = 91.1379
MEAN_ANOMALY   = 284.7170

EPHEMERIS_TYPE = 0
CLASSIFICATION_TYPE = U
NORAD_CAT_ID   = 27386
ELEMENT_SET_NO = 999
REV_AT_EPOCH   = 25143
BSTAR          = .35128E-4
MEAN_MOTION_DOT = .66E-6
MEAN_MOTION_DDOT = 0

